{
  "type": "FeatureCollection",
  "features": [
    {
      "type": "Feature",
      "properties": {
        "norad_id": 57400,
        "name": "TIANMU-1 08",
        "group": "weather",
        "lat": 7.441831780080944,
        "lon": 49.53538116210773,
        "alt_km": 479.2507379546414,
        "timestamp": "2025-12-27T03:58:43.824789+00:00",
        "meta_object_name": "TIANMU-1 08",
        "meta_object_id": "2023-101B",
        "meta_epoch": "2025-12-26T20:05:20.365728",
        "meta_mean_motion": 15.28254727,
        "meta_eccentricity": 0.0006833,
        "meta_inclination": 97.2846,
        "meta_ra_of_asc_node": 50.1713,
        "meta_arg_of_pericenter": 43.7216,
        "meta_mean_anomaly": 316.4564,
        "meta_ephemeris_type": 0,
        "meta_classification_type": "U",
        "meta_norad_cat_id": 57400,
        "meta_element_set_no": 999,
        "meta_rev_at_epoch": 13530,
        "meta_bstar": 0.0002974,
        "meta_mean_motion_dot": 8.12e-05,
        "meta_mean_motion_ddot": 0,
        "tle_line1": "1 57400U 23101B   25360.83704127  .00008120  00000+0  29740-3 0  9996",
        "tle_line2": "2 57400  97.2846  50.1713 0006833  43.7216 316.4564 15.28254727135308"
      },
      "geometry": {
        "type": "Point",
        "coordinates": [
          49.53538116210773,
          7.441831780080944
        ]
      }
    },
    {
      "type": "Feature",
      "properties": {
        "norad_id": 57401,
        "name": "TIANMU-1 09",
        "group": "weather",
        "lat": 79.23076119166853,
        "lon": 7.766307083251264,
        "alt_km": 470.2854500331987,
        "timestamp": "2025-12-27T03:58:43.824800+00:00",
        "meta_object_name": "TIANMU-1 09",
        "meta_object_id": "2023-101C",
        "meta_epoch": "2025-12-26T21:20:09.650112",
        "meta_mean_motion": 15.28292387,
        "meta_eccentricity": 0.0006094,
        "meta_inclination": 97.2803,
        "meta_ra_of_asc_node": 49.7281,
        "meta_arg_of_pericenter": 44.6748,
        "meta_mean_anomaly": 315.4982,
        "meta_ephemeris_type": 0,
        "meta_classification_type": "U",
        "meta_norad_cat_id": 57401,
        "meta_element_set_no": 999,
        "meta_rev_at_epoch": 13531,
        "meta_bstar": 0.00031665,
        "meta_mean_motion_dot": 8.66e-05,
        "meta_mean_motion_ddot": 0,
        "tle_line1": "1 57401U 23101C   25360.88900058  .00008660  00000+0  31665-3 0  9991",
        "tle_line2": "2 57401  97.2803  49.7281 0006094  44.6748 315.4982 15.28292387135313"
      },
      "geometry": {
        "type": "Point",
        "coordinates": [
          7.766307083251264,
          79.23076119166853
        ]
      }
    },
    {
      "type": "Feature",
      "properties": {
        "norad_id": 57402,
        "name": "TIANMU-1 10",
        "group": "weather",
        "lat": -72.00683166580582,
        "lon": -152.3435128205576,
        "alt_km": 492.76196780531336,
        "timestamp": "2025-12-27T03:58:43.824809+00:00",
        "meta_object_name": "TIANMU-1 10",
        "meta_object_id": "2023-101D",
        "meta_epoch": "2025-12-26T20:35:14.781408",
        "meta_mean_motion": 15.28283283,
        "meta_eccentricity": 0.000781,
        "meta_inclination": 97.2883,
        "meta_ra_of_asc_node": 50.5624,
        "meta_arg_of_pericenter": 41.8736,
        "meta_mean_anomaly": 318.31,
        "meta_ephemeris_type": 0,
        "meta_classification_type": "U",
        "meta_norad_cat_id": 57402,
        "meta_element_set_no": 999,
        "meta_rev_at_epoch": 13530,
        "meta_bstar": 0.00028556,
        "meta_mean_motion_dot": 7.802e-05,
        "meta_mean_motion_ddot": 0,
        "tle_line1": "1 57402U 23101D   25360.85780997  .00007802  00000+0  28556-3 0  9999",
        "tle_line2": "2 57402  97.2883  50.5624 0007810  41.8736 318.3100 15.28283283135304"
      },
      "geometry": {
        "type": "Point",
        "coordinates": [
          -152.3435128205576,
          -72.00683166580582
        ]
      }
    },
    {
      "type": "Feature",
      "properties": {
        "norad_id": 57490,
        "name": "FENGYUN 3F",
        "group": "weather",
        "lat": -59.665168458284555,
        "lon": 84.40585358875452,
        "alt_km": 833.4256224722058,
        "timestamp": "2025-12-27T03:58:43.824818+00:00",
        "meta_object_name": "FENGYUN 3F",
        "meta_object_id": "2023-111A",
        "meta_epoch": "2025-12-26T19:48:31.750272",
        "meta_mean_motion": 14.1989724,
        "meta_eccentricity": 8.68e-05,
        "meta_inclination": 98.7065,
        "meta_ra_of_asc_node": 68.8903,
        "meta_arg_of_pericenter": 117.8725,
        "meta_mean_anomaly": 242.254,
        "meta_ephemeris_type": 0,
        "meta_classification_type": "U",
        "meta_norad_cat_id": 57490,
        "meta_element_set_no": 999,
        "meta_rev_at_epoch": 12440,
        "meta_bstar": 5.5478e-05,
        "meta_mean_motion_dot": 7.4e-07,
        "meta_mean_motion_ddot": 0,
        "tle_line1": "1 57490U 23111A   25360.82536748  .00000074  00000+0  55478-4 0  9995",
        "tle_line2": "2 57490  98.7065  68.8903 0000868 117.8725 242.2540 14.19897240124404"
      },
      "geometry": {
        "type": "Point",
        "coordinates": [
          84.40585358875452,
          -59.665168458284555
        ]
      }
    },
    {
      "type": "Feature",
      "properties": {
        "norad_id": 58584,
        "name": "ARKTIKA-M 2",
        "group": "weather",
        "lat": 47.160132289395406,
        "lon": -39.688430992025246,
        "alt_km": 24855.634733747753,
        "timestamp": "2025-12-27T03:58:43.824830+00:00",
        "meta_object_name": "ARKTIKA-M 2",
        "meta_object_id": "2023-198A",
        "meta_epoch": "2025-12-25T18:56:09.299328",
        "meta_mean_motion": 2.00602256,
        "meta_eccentricity": 0.686608,
        "meta_inclination": 63.2255,
        "meta_ra_of_asc_node": 173.4714,
        "meta_arg_of_pericenter": 268.0516,
        "meta_mean_anomaly": 18.8422,
        "meta_ephemeris_type": 0,
        "meta_classification_type": "U",
        "meta_norad_cat_id": 58584,
        "meta_element_set_no": 999,
        "meta_rev_at_epoch": 1484,
        "meta_bstar": 0,
        "meta_mean_motion_dot": 2.31e-06,
        "meta_mean_motion_ddot": 0,
        "tle_line1": "1 58584U 23198A   25359.78899652  .00000231  00000+0  00000+0 0  9995",
        "tle_line2": "2 58584  63.2255 173.4714 6866080 268.0516  18.8422  2.00602256 14849"
      },
      "geometry": {
        "type": "Point",
        "coordinates": [
          -39.688430992025246,
          47.160132289395406
        ]
      }
    },
    {
      "type": "Feature",
      "properties": {
        "norad_id": 58645,
        "name": "TIANMU-1 11",
        "group": "weather",
        "lat": -70.1958384112762,
        "lon": 179.50003197057555,
        "alt_km": 493.5568714735,
        "timestamp": "2025-12-27T03:58:43.824841+00:00",
        "meta_object_name": "TIANMU-1 11",
        "meta_object_id": "2023-205A",
        "meta_epoch": "2025-12-26T20:34:42.804768",
        "meta_mean_motion": 15.24770616,
        "meta_eccentricity": 0.0007594,
        "meta_inclination": 97.3601,
        "meta_ra_of_asc_node": 20.2328,
        "meta_arg_of_pericenter": 249.752,
        "meta_mean_anomaly": 110.2902,
        "meta_ephemeris_type": 0,
        "meta_classification_type": "U",
        "meta_norad_cat_id": 58645,
        "meta_element_set_no": 999,
        "meta_rev_at_epoch": 11124,
        "meta_bstar": 0.00027787,
        "meta_mean_motion_dot": 6.821e-05,
        "meta_mean_motion_ddot": 0,
        "tle_line1": "1 58645U 23205A   25360.85743987  .00006821  00000+0  27787-3 0  9997",
        "tle_line2": "2 58645  97.3601  20.2328 0007594 249.7520 110.2902 15.24770616111240"
      },
      "geometry": {
        "type": "Point",
        "coordinates": [
          179.50003197057555,
          -70.1958384112762
        ]
      }
    },
    {
      "type": "Feature",
      "properties": {
        "norad_id": 58646,
        "name": "TIANMU-1 12",
        "group": "weather",
        "lat": 79.3408342829184,
        "lon": -116.29810934005098,
        "alt_km": 487.0850145580862,
        "timestamp": "2025-12-27T03:58:43.824850+00:00",
        "meta_object_name": "TIANMU-1 12",
        "meta_object_id": "2023-205B",
        "meta_epoch": "2025-12-26T19:40:32.581920",
        "meta_mean_motion": 15.24656886,
        "meta_eccentricity": 0.0006104,
        "meta_inclination": 97.3588,
        "meta_ra_of_asc_node": 19.9967,
        "meta_arg_of_pericenter": 227.7655,
        "meta_mean_anomaly": 132.3065,
        "meta_ephemeris_type": 0,
        "meta_classification_type": "U",
        "meta_norad_cat_id": 58646,
        "meta_element_set_no": 999,
        "meta_rev_at_epoch": 11122,
        "meta_bstar": 0.00028641,
        "meta_mean_motion_dot": 7.007e-05,
        "meta_mean_motion_ddot": 0,
        "tle_line1": "1 58646U 23205B   25360.81982155  .00007007  00000+0  28641-3 0  9993",
        "tle_line2": "2 58646  97.3588  19.9967 0006104 227.7655 132.3065 15.24656886111225"
      },
      "geometry": {
        "type": "Point",
        "coordinates": [
          -116.29810934005098,
          79.3408342829184
        ]
      }
    }
  ]
}